     2.11           N: GPS NAV DATA                         RINEX VERSION / TYPE
teqc  2011Oct11                         20130802 01:30:07UTCPGM / RUN BY / DATE
Linux 2.4.21-27.ELsmp|Opteron|gcc -static|Linux x86_64|=+   COMMENT
teqc  2011Oct11     IGN-E (SPG)         20130802 01:30:05UTCCOMMENT
                                                            END OF HEADER
 2 13  8  1  4  0  0.0 4.444308578968E-04 1.818989403546E-12 0.000000000000E+00
    9.600000000000E+01 5.000000000000E-01 5.440941031054E-09-4.540614438588E-01
    2.402812242508E-07 1.249602879398E-02 6.526708602905E-06 5.153694177628E+03
    3.600000000000E+05 1.080334186554E-07-2.615910178428E+00 1.620501279831E-07
    9.390051746832E-01 2.429687500000E+02-2.572109112063E+00-8.517140770437E-09
    2.553677824757E-10 1.000000000000E+00 1.751000000000E+03 0.000000000000E+00
    2.800000000000E+00 0.000000000000E+00-1.722946763039E-08 9.600000000000E+01
    3.528300000000E+05
 4 13  8  1  4  0  0.0 2.877926453948E-04 1.034550223267E-11 0.000000000000E+00
    9.900000000000E+01-4.812500000000E+00 5.296291849533E-09 2.780467770832E+00
   -3.557652235031E-07 1.039819559082E-02 6.726011633873E-06 5.153577590942E+03
    3.600000000000E+05 1.862645149231E-08-2.599539092300E+00-1.434236764908E-07
    9.380298428110E-01 2.387812500000E+02 9.960981918308E-01-8.119981131927E-09
    2.232235785105E-10 1.000000000000E+00 1.751000000000E+03 0.000000000000E+00
    2.000000000000E+00 0.000000000000E+00-6.053596735001E-09 9.900000000000E+01
    3.528300000000E+05
 5 13  8  1  4  0  0.0-3.991806879640E-04-3.410605131648E-13 0.000000000000E+00
    7.200000000000E+01-1.562500000000E+00 5.049495932496E-09 1.817518363484E+00
    1.136213541031E-07 3.122952184640E-03 8.484348654747E-06 5.153668884277E+03
    3.600000000000E+05-3.352761268616E-08-1.550111623365E+00 8.568167686462E-08
    9.480076653302E-01 2.099687500000E+02 2.488740550148E-01-8.188555611355E-09
   -3.453715369250E-10 1.000000000000E+00 1.751000000000E+03 0.000000000000E+00
    2.000000000000E+00 0.000000000000E+00-9.778887033463E-09 7.200000000000E+01
    3.528300000000E+05
 7 13  8  1  4  0  0.0 2.423850819468E-04 4.206412995700E-12 0.000000000000E+00
    5.000000000000E+01 2.656250000000E+01 4.241962336948E-09-1.834656454634E+00
    1.313164830208E-06 6.735390168615E-03 3.343448042870E-06 5.153675086975E+03
    3.600000000000E+05-7.450580596924E-08 5.675836015409E-01-6.891787052155E-08
    9.753332049200E-01 3.240000000000E+02-2.913091346427E+00-8.070336399157E-09
    3.750156088445E-11 1.000000000000E+00 1.751000000000E+03 0.000000000000E+00
    2.000000000000E+00 0.000000000000E+00-1.071020960808E-08 5.000000000000E+01
    3.528300000000E+05
 8 13  8  1  4  0  0.0 7.717404514551E-06 2.273736754432E-13 0.000000000000E+00
    1.090000000000E+02 1.712500000000E+01 3.753370503290E-09-2.403750729752E+00
    7.878988981247E-07 1.323994575068E-02 3.593042492867E-06 5.153705987930E+03
    3.600000000000E+05-8.195638656616E-08 6.602780862726E-01-1.732259988785E-07
    9.981147775897E-01 3.306875000000E+02-2.858354680688E+00-7.796039369623E-09
    4.000166517470E-11 1.000000000000E+00 1.751000000000E+03 0.000000000000E+00
    2.000000000000E+00 0.000000000000E+00-3.725290298462E-09 1.090000000000E+02
    3.528300000000E+05
 9 13  8  1  4  0  0.0 2.583283931017E-04 2.501110429876E-12 0.000000000000E+00
    5.400000000000E+01 3.337500000000E+01 4.194460334617E-09-7.296049372599E-01
    1.760199666023E-06 1.734466431662E-02 4.179775714874E-06 5.152769943237E+03
    3.600000000000E+05-2.440065145493E-07 5.448304738504E-01 1.229345798492E-07
    9.839569885009E-01 3.166875000000E+02 1.697616266452E+00-8.362134096274E-09
    8.000333034941E-11 1.000000000000E+00 1.751000000000E+03 0.000000000000E+00
    2.800000000000E+00 0.000000000000E+00-5.587935447693E-09 5.400000000000E+01
    3.528300000000E+05
10 13  8  1  4  0  0.0-8.896505460143E-05-1.364242052659E-12 0.000000000000E+00
    6.200000000000E+01 4.375000000000E+00 5.125570634590E-09 2.020121901066E+00
    1.378357410431E-07 1.255960180424E-02 8.838251233101E-06 5.153649152756E+03
    3.600000000000E+05-3.054738044739E-07-1.531062570604E+00-2.142041921616E-07
    9.428306893684E-01 2.011875000000E+02 8.084184170034E-01-8.145339513987E-09
   -3.096557454896E-10 1.000000000000E+00 1.751000000000E+03 0.000000000000E+00
    2.000000000000E+00 0.000000000000E+00-2.328306436539E-09 6.200000000000E+01
    3.528300000000E+05
13 13  8  1  4  0  0.0 9.443238377571E-05-3.751665644813E-12 0.000000000000E+00
    6.800000000000E+01 8.875000000000E+01 3.998737785338E-09 4.902834798292E-01
    4.405155777931E-06 5.107295117341E-03 8.063390851021E-06 5.153724117279E+03
    3.600000000000E+05-1.117587089539E-08-3.986306249542E-01-8.381903171539E-08
    9.810027892867E-01 2.349062500000E+02 2.183604747537E+00-7.858898420920E-09
   -9.036090625747E-11 1.000000000000E+00 1.751000000000E+03 0.000000000000E+00
    2.000000000000E+00 0.000000000000E+00-1.071020960808E-08 6.800000000000E+01
    3.528300000000E+05
16 13  8  1  4  0  0.0-2.493667416275E-04 5.684341886081E-13 0.000000000000E+00
    3.500000000000E+01-7.296875000000E+01 3.824802252694E-09 1.936392013014E+00
   -3.729015588760E-06 7.098775007762E-03 6.603077054024E-06 5.153686855316E+03
    3.600000000000E+05-4.656612873077E-08 1.645732247080E+00 6.332993507385E-08
    9.852305128169E-01 2.673750000000E+02 1.348035868591E-01-7.800324830498E-09
   -1.589351983355E-10 1.000000000000E+00 1.751000000000E+03 0.000000000000E+00
    2.000000000000E+00 0.000000000000E+00-9.778887033463E-09 3.500000000000E+01
    3.528300000000E+05
23 13  8  1  4  0  0.0 6.167916581035E-05-3.524291969370E-12 0.000000000000E+00
    8.100000000000E+01 8.403125000000E+01 4.593048608115E-09-2.801365631666E-01
    4.218891263008E-06 8.839175454341E-03 7.724389433861E-06 5.153682844162E+03
    3.600000000000E+05 1.098960638046E-07-4.882069480761E-01 6.519258022308E-08
    9.551728142560E-01 2.264375000000E+02-2.850163337155E+00-8.188198563630E-09
   -1.510777197788E-10 1.000000000000E+00 1.751000000000E+03 0.000000000000E+00
    2.000000000000E+00 0.000000000000E+00-2.002343535423E-08 8.100000000000E+01
    3.528300000000E+05
29 13  8  1  4  0  0.0 4.584258422256E-04 3.183231456205E-12 0.000000000000E+00
    8.400000000000E+01-3.693750000000E+01 4.184102841975E-09-2.528378749992E+00
   -1.853331923485E-06 1.637071371078E-03 8.888542652130E-06 5.153611522675E+03
    3.600000000000E+05-7.450580596924E-09 2.690710857787E+00 1.117587089539E-08
    9.669313284567E-01 2.088125000000E+02-9.709891969575E-01-7.816754354906E-09
    3.696582484558E-10 1.000000000000E+00 1.751000000000E+03 0.000000000000E+00
    2.000000000000E+00 0.000000000000E+00-9.313225746155E-09 8.400000000000E+01
    3.528300000000E+05
26 13  8  1  4  0  0.0 1.220637932420E-04 1.716671249596E-11 0.000000000000E+00
    7.300000000000E+01 7.462500000000E+01 4.250534146877E-09-2.861552773216E-01
    4.108995199203E-06 2.105002861936E-02 8.231028914452E-06 5.153693660736E+03
    3.600000000000E+05-1.657754182816E-07-4.062557665262E-01 1.695007085800E-07
    9.784403624599E-01 2.321875000000E+02 1.248196696768E+00-8.264272821634E-09
   -8.428922837478E-11 1.000000000000E+00 1.751000000000E+03 0.000000000000E+00
    2.000000000000E+00 0.000000000000E+00-5.587935447693E-09 7.300000000000E+01
    3.528600000000E+05
 2 13  8  1  3 59 44.0 4.444303922355E-04 1.818989403546E-12 0.000000000000E+00
    4.000000000000E+00 5.000000000000E-01 5.440941031054E-09-4.563952063494E-01
    2.402812242508E-07 1.249602762982E-02 6.526708602905E-06 5.153694183350E+03
    3.599840000000E+05 1.080334186554E-07-2.615910058468E+00 1.620501279831E-07
    9.390051542023E-01 2.429687500000E+02-2.572109027214E+00-8.517140770437E-09
    2.557249412227E-10 1.000000000000E+00 1.751000000000E+03 0.000000000000E+00
    2.000000000000E+00 0.000000000000E+00-1.722946763039E-08 4.000000000000E+00
    3.549300000000E+05
28 13  8  1  4  0  0.0 2.804426476359E-04 3.069544618484E-12 0.000000000000E+00
    2.200000000000E+01-8.721875000000E+01 3.778014345812E-09 1.751860293064E+00
   -4.751607775688E-06 1.864497805946E-02 6.215646862984E-06 5.153654718399E+03
    3.600000000000E+05-9.313225746155E-09 1.651896841963E+00-4.768371582031E-07
    9.836890550547E-01 2.727187500000E+02-1.765748505850E+00-7.808182544977E-09
   -3.428714256959E-11 1.000000000000E+00 1.751000000000E+03 0.000000000000E+00
    2.000000000000E+00 0.000000000000E+00-1.071020960808E-08 2.200000000000E+01
    3.565200000000E+05
15 13  8  1  3 59 44.0-1.301672309637E-04-1.705302565824E-12 0.000000000000E+00
    9.000000000000E+00 6.543750000000E+01 4.972707134954E-09 2.006207291386E-01
    3.367662429810E-06 5.482463515364E-03 8.193776011467E-06 5.153803575516E+03
    3.599840000000E+05 4.470348358154E-08-5.303374380659E-01 2.235174179077E-08
    9.401795585038E-01 2.069375000000E+02 1.611704060115E-01-8.281059393767E-09
   -2.178662111829E-10 1.000000000000E+00 1.751000000000E+03 0.000000000000E+00
    2.000000000000E+00 0.000000000000E+00-9.778887033463E-09 9.000000000000E+00
    3.593700000000E+05
28 13  8  1  6  0  0.0 2.804649993777E-04 3.069544618484E-12 0.000000000000E+00
    2.400000000000E+01-9.034375000000E+01 3.705154405509E-09 2.802104516478E+00
   -4.598870873451E-06 1.864531438332E-02 6.457790732384E-06 5.153652835846E+03
    3.672000000000E+05 1.713633537292E-07 1.651843212849E+00-8.568167686462E-08
    9.836898099204E-01 2.632500000000E+02-1.765805373864E+00-7.456739226086E-09
   -1.514348785259E-10 1.000000000000E+00 1.751000000000E+03 0.000000000000E+00
    2.000000000000E+00 0.000000000000E+00-1.071020960808E-08 2.400000000000E+01
    3.600300000000E+05
